[{"OBJECT_NAME":"STARLINK-31704","OBJECT_ID":"2024-076Y","EPOCH":"2026-03-09T22:00:01.999584","MEAN_MOTION":15.30892355,"ECCENTRICITY":0.00079744,"INCLINATION":42.9978,"RA_OF_ASC_NODE":323.2923,"ARG_OF_PERICENTER":240.5046,"MEAN_ANOMALY":200.4144,"EPHEMERIS_TYPE":0,"CLASSIFICATION_TYPE":"U","NORAD_CAT_ID":59586,"ELEMENT_SET_NO":999,"REV_AT_EPOCH":581,"BSTAR":0.0024766131,"MEAN_MOTION_DOT":0.00076042,"MEAN_MOTION_DDOT":0},{"OBJECT_NAME":"STARLINK-33804","OBJECT_ID":"2025-071U","EPOCH":"2026-03-09T11:23:12.766848","MEAN_MOTION":15.30183426,"ECCENTRICITY":0.00012634,"INCLINATION":53.1582,"RA_OF_ASC_NODE":141.1182,"ARG_OF_PERICENTER":58.6313,"MEAN_ANOMALY":301.4811,"EPHEMERIS_TYPE":0,"CLASSIFICATION_TYPE":"U","NORAD_CAT_ID":63511,"ELEMENT_SET_NO":999,"REV_AT_EPOCH":5236,"BSTAR":0.00084097169,"MEAN_MOTION_DOT":0.00024618,"MEAN_MOTION_DDOT":0}]
